[{"OBJECT_NAME":"QIANFAN-52","OBJECT_ID":"2024-232S","EPOCH":"2026-03-05T18:06:53.602848","MEAN_MOTION":13.51000878,"ECCENTRICITY":0.0014094,"INCLINATION":89.0054,"RA_OF_ASC_NODE":32.7275,"ARG_OF_PERICENTER":319.3511,"MEAN_ANOMALY":40.6587,"EPHEMERIS_TYPE":0,"CLASSIFICATION_TYPE":"U","NORAD_CAT_ID":62253,"ELEMENT_SET_NO":999,"REV_AT_EPOCH":7915,"BSTAR":0.00012336,"MEAN_MOTION_DOT":9.2e-7,"MEAN_MOTION_DDOT":0},{"OBJECT_NAME":"QIANFAN-53","OBJECT_ID":"2024-232T","EPOCH":"2026-03-05T17:37:13.412064","MEAN_MOTION":13.51003574,"ECCENTRICITY":0.0013015,"INCLINATION":89.0061,"RA_OF_ASC_NODE":32.8402,"ARG_OF_PERICENTER":321.238,"MEAN_ANOMALY":38.7837,"EPHEMERIS_TYPE":0,"CLASSIFICATION_TYPE":"U","NORAD_CAT_ID":62254,"ELEMENT_SET_NO":999,"REV_AT_EPOCH":7911,"BSTAR":0.00010355,"MEAN_MOTION_DOT":7.9e-7,"MEAN_MOTION_DDOT":0},{"OBJECT_NAME":"QIANFAN-54","OBJECT_ID":"2024-232U","EPOCH":"2026-03-05T16:49:52.332096","MEAN_MOTION":13.51002945,"ECCENTRICITY":0.0003108,"INCLINATION":89.0053,"RA_OF_ASC_NODE":32.5148,"ARG_OF_PERICENTER":39.3606,"MEAN_ANOMALY":320.777,"EPHEMERIS_TYPE":0,"CLASSIFICATION_TYPE":"U","NORAD_CAT_ID":62255,"ELEMENT_SET_NO":999,"REV_AT_EPOCH":11061,"BSTAR":0.00010823,"MEAN_MOTION_DOT":8.2e-7,"MEAN_MOTION_DDOT":0},{"OBJECT_NAME":"QIANFAN-55","OBJECT_ID":"2025-016A","EPOCH":"2026-03-05T17:27:23.266368","MEAN_MOTION":13.50996311,"ECCENTRICITY":0.0019433,"INCLINATION":88.9692,"RA_OF_ASC_NODE":94.6239,"ARG_OF_PERICENTER":107.4685,"MEAN_ANOMALY":252.8592,"EPHEMERIS_TYPE":0,"CLASSIFICATION_TYPE":"U","NORAD_CAT_ID":62785,"ELEMENT_SET_NO":999,"REV_AT_EPOCH":5839,"BSTAR":6.7956e-5,"MEAN_MOTION_DOT":5.6e-7,"MEAN_MOTION_DDOT":0},{"OBJECT_NAME":"QIANFAN-56","OBJECT_ID":"2025-016B","EPOCH":"2026-03-05T17:50:57.770016","MEAN_MOTION":13.50998192,"ECCENTRICITY":0.0018063,"INCLINATION":88.9665,"RA_OF_ASC_NODE":94.4362,"ARG_OF_PERICENTER":109.4424,"MEAN_ANOMALY":250.8681,"EPHEMERIS_TYPE":0,"CLASSIFICATION_TYPE":"U","NORAD_CAT_ID":62786,"ELEMENT_SET_NO":999,"REV_AT_EPOCH":5844,"BSTAR":5.6315e-5,"MEAN_MOTION_DOT":4.9e-7,"MEAN_MOTION_DDOT":0},{"OBJECT_NAME":"QIANFAN-57","OBJECT_ID":"2025-016C","EPOCH":"2026-03-05T18:38:26.956032","MEAN_MOTION":13.50997073,"ECCENTRICITY":0.000137,"INCLINATION":88.9696,"RA_OF_ASC_NODE":94.6121,"ARG_OF_PERICENTER":99.38,"MEAN_ANOMALY":260.7506,"EPHEMERIS_TYPE":0,"CLASSIFICATION_TYPE":"U","NORAD_CAT_ID":62787,"ELEMENT_SET_NO":999,"REV_AT_EPOCH":5841,"BSTAR":4.5754e-5,"MEAN_MOTION_DOT":4.2e-7,"MEAN_MOTION_DDOT":0},{"OBJECT_NAME":"QIANFAN-58","OBJECT_ID":"2025-016D","EPOCH":"2026-03-05T17:56:52.973376","MEAN_MOTION":13.50998709,"ECCENTRICITY":0.001602,"INCLINATION":88.9666,"RA_OF_ASC_NODE":94.4211,"ARG_OF_PERICENTER":102.5874,"MEAN_ANOMALY":257.707,"EPHEMERIS_TYPE":0,"CLASSIFICATION_TYPE":"U","NORAD_CAT_ID":62788,"ELEMENT_SET_NO":999,"REV_AT_EPOCH":5845,"BSTAR":5.5356e-5,"MEAN_MOTION_DOT":4.8e-7,"MEAN_MOTION_DDOT":0},{"OBJECT_NAME":"QIANFAN-59","OBJECT_ID":"2025-016E","EPOCH":"2026-03-05T18:32:39.202944","MEAN_MOTION":13.5099459,"ECCENTRICITY":0.0016366,"INCLINATION":88.9689,"RA_OF_ASC_NODE":94.512,"ARG_OF_PERICENTER":105.8361,"MEAN_ANOMALY":254.4596,"EPHEMERIS_TYPE":0,"CLASSIFICATION_TYPE":"U","NORAD_CAT_ID":62789,"ELEMENT_SET_NO":999,"REV_AT_EPOCH":5845,"BSTAR":5.7081e-5,"MEAN_MOTION_DOT":4.9e-7,"MEAN_MOTION_DDOT":0},{"OBJECT_NAME":"QIANFAN-60","OBJECT_ID":"2025-016F","EPOCH":"2026-03-05T17:33:25.193376","MEAN_MOTION":13.50992497,"ECCENTRICITY":0.0017934,"INCLINATION":88.9671,"RA_OF_ASC_NODE":94.4718,"ARG_OF_PERICENTER":102.9895,"MEAN_ANOMALY":257.326,"EPHEMERIS_TYPE":0,"CLASSIFICATION_TYPE":"U","NORAD_CAT_ID":62790,"ELEMENT_SET_NO":999,"REV_AT_EPOCH":5843,"BSTAR":3.5796e-5,"MEAN_MOTION_DOT":3.5e-7,"MEAN_MOTION_DDOT":0},{"OBJECT_NAME":"QIANFAN-61","OBJECT_ID":"2025-016G","EPOCH":"2026-03-05T14:45:01.370016","MEAN_MOTION":13.46648286,"ECCENTRICITY":0.0014066,"INCLINATION":88.9734,"RA_OF_ASC_NODE":94.7032,"ARG_OF_PERICENTER":94.622,"MEAN_ANOMALY":265.6536,"EPHEMERIS_TYPE":0,"CLASSIFICATION_TYPE":"U","NORAD_CAT_ID":62791,"ELEMENT_SET_NO":999,"REV_AT_EPOCH":5843,"BSTAR":-3.0832,"MEAN_MOTION_DOT":-0.01743446,"MEAN_MOTION_DDOT":0},{"OBJECT_NAME":"QIANFAN-62","OBJECT_ID":"2025-016H","EPOCH":"2026-03-05T16:39:59.806944","MEAN_MOTION":13.50996532,"ECCENTRICITY":0.0018235,"INCLINATION":88.9684,"RA_OF_ASC_NODE":94.5187,"ARG_OF_PERICENTER":102.8116,"MEAN_ANOMALY":257.5074,"EPHEMERIS_TYPE":0,"CLASSIFICATION_TYPE":"U","NORAD_CAT_ID":62792,"ELEMENT_SET_NO":999,"REV_AT_EPOCH":5843,"BSTAR":2.9296e-5,"MEAN_MOTION_DOT":3.1e-7,"MEAN_MOTION_DDOT":0},{"OBJECT_NAME":"QIANFAN-63","OBJECT_ID":"2025-016J","EPOCH":"2026-03-05T17:15:35.786016","MEAN_MOTION":13.50995201,"ECCENTRICITY":0.0018274,"INCLINATION":88.9691,"RA_OF_ASC_NODE":94.4732,"ARG_OF_PERICENTER":107.5155,"MEAN_ANOMALY":252.7995,"EPHEMERIS_TYPE":0,"CLASSIFICATION_TYPE":"U","NORAD_CAT_ID":62793,"ELEMENT_SET_NO":999,"REV_AT_EPOCH":5847,"BSTAR":4.4033e-5,"MEAN_MOTION_DOT":4.1e-7,"MEAN_MOTION_DDOT":0},{"OBJECT_NAME":"QIANFAN-64","OBJECT_ID":"2025-016K","EPOCH":"2026-03-05T18:14:52.765152","MEAN_MOTION":13.51005474,"ECCENTRICITY":0.0016237,"INCLINATION":88.9678,"RA_OF_ASC_NODE":94.4318,"ARG_OF_PERICENTER":101.0463,"MEAN_ANOMALY":259.2515,"EPHEMERIS_TYPE":0,"CLASSIFICATION_TYPE":"U","NORAD_CAT_ID":62794,"ELEMENT_SET_NO":999,"REV_AT_EPOCH":5847,"BSTAR":-3.5851e-6,"MEAN_MOTION_DOT":1.0e-7,"MEAN_MOTION_DDOT":0},{"OBJECT_NAME":"QIANFAN-65","OBJECT_ID":"2025-016L","EPOCH":"2026-03-05T18:08:49.161984","MEAN_MOTION":13.5100873,"ECCENTRICITY":0.0016088,"INCLINATION":88.9674,"RA_OF_ASC_NODE":94.4553,"ARG_OF_PERICENTER":102.5722,"MEAN_ANOMALY":257.723,"EPHEMERIS_TYPE":0,"CLASSIFICATION_TYPE":"U","NORAD_CAT_ID":62795,"ELEMENT_SET_NO":999,"REV_AT_EPOCH":5845,"BSTAR":1.9946e-5,"MEAN_MOTION_DOT":2.5e-7,"MEAN_MOTION_DDOT":0},{"OBJECT_NAME":"QIANFAN-66","OBJECT_ID":"2025-016M","EPOCH":"2026-03-05T18:50:18.156768","MEAN_MOTION":13.50996881,"ECCENTRICITY":0.0017203,"INCLINATION":88.9694,"RA_OF_ASC_NODE":94.4387,"ARG_OF_PERICENTER":98.7621,"MEAN_ANOMALY":261.5479,"EPHEMERIS_TYPE":0,"CLASSIFICATION_TYPE":"U","NORAD_CAT_ID":62796,"ELEMENT_SET_NO":999,"REV_AT_EPOCH":5850,"BSTAR":3.3051e-5,"MEAN_MOTION_DOT":3.4e-7,"MEAN_MOTION_DDOT":0},{"OBJECT_NAME":"QIANFAN-67","OBJECT_ID":"2025-016N","EPOCH":"2026-03-05T17:09:29.894976","MEAN_MOTION":13.50995272,"ECCENTRICITY":0.0017147,"INCLINATION":88.9684,"RA_OF_ASC_NODE":94.4634,"ARG_OF_PERICENTER":104.9602,"MEAN_ANOMALY":255.3449,"EPHEMERIS_TYPE":0,"CLASSIFICATION_TYPE":"U","NORAD_CAT_ID":62797,"ELEMENT_SET_NO":999,"REV_AT_EPOCH":5846,"BSTAR":4.0761e-5,"MEAN_MOTION_DOT":3.9e-7,"MEAN_MOTION_DDOT":0},{"OBJECT_NAME":"QIANFAN-68","OBJECT_ID":"2025-016P","EPOCH":"2026-03-05T16:57:50.962176","MEAN_MOTION":13.51005222,"ECCENTRICITY":0.0017212,"INCLINATION":88.9688,"RA_OF_ASC_NODE":94.5125,"ARG_OF_PERICENTER":103.4572,"MEAN_ANOMALY":256.8499,"EPHEMERIS_TYPE":0,"CLASSIFICATION_TYPE":"U","NORAD_CAT_ID":62798,"ELEMENT_SET_NO":999,"REV_AT_EPOCH":5844,"BSTAR":4.0222e-5,"MEAN_MOTION_DOT":3.8e-7,"MEAN_MOTION_DDOT":0}]
