QIANFAN-52              
1 62253U 24232S   26064.75478707  .00000092  00000+0  12336-3 0  9992
2 62253  89.0054  32.7275 0014094 319.3511  40.6587 13.51000878 79158
QIANFAN-53              
1 62254U 24232T   26064.73418301  .00000079  00000+0  10355-3 0  9999
2 62254  89.0061  32.8402 0013015 321.2380  38.7837 13.51003574 79116
QIANFAN-54              
1 62255U 24232U   26064.70130014  .00000082  00000+0  10823-3 0  9993
2 62255  89.0053  32.5148 0003108  39.3606 320.7770 13.51002945110614
QIANFAN-55              
1 62785U 25016A   26064.72735262  .00000056  00000+0  67956-4 0  9991
2 62785  88.9692  94.6239 0019433 107.4685 252.8592 13.50996311 58392
QIANFAN-56              
1 62786U 25016B   26064.74372419  .00000049  00000+0  56315-4 0  9994
2 62786  88.9665  94.4362 0018063 109.4424 250.8681 13.50998192 58441
QIANFAN-57              
1 62787U 25016C   26064.77670088  .00000042  00000+0  45754-4 0  9999
2 62787  88.9696  94.6121 0001370  99.3800 260.7506 13.50997073 58419
QIANFAN-58              
1 62788U 25016D   26064.74783534  .00000048  00000+0  55356-4 0  9993
2 62788  88.9666  94.4211 0016020 102.5874 257.7070 13.50998709 58454
QIANFAN-59              
1 62789U 25016E   26064.77267596  .00000049  00000+0  57081-4 0  9990
2 62789  88.9689  94.5120 0016366 105.8361 254.4596 13.50994590 58451
QIANFAN-60              
1 62790U 25016F   26064.73154159  .00000035  00000+0  35796-4 0  9992
2 62790  88.9671  94.4718 0017934 102.9895 257.3260 13.50992497 58430
QIANFAN-61              
1 62791U 25016G   26064.61459919 -.01743446  00000+0 -30832+1 0  9997
2 62791  88.9734  94.7032 0014066  94.6220 265.6536 13.46648286 58432
QIANFAN-62              
1 62792U 25016H   26064.69444221  .00000031  00000+0  29296-4 0  9995
2 62792  88.9684  94.5187 0018235 102.8116 257.5074 13.50996532 58436
QIANFAN-63              
1 62793U 25016J   26064.71916419  .00000041  00000+0  44033-4 0  9999
2 62793  88.9691  94.4732 0018274 107.5155 252.7995 13.50995201 58473
QIANFAN-64              
1 62794U 25016K   26064.76033293  .00000010  00000+0 -35851-5 0  9991
2 62794  88.9678  94.4318 0016237 101.0463 259.2515 13.51005474 58472
QIANFAN-65              
1 62795U 25016L   26064.75612456  .00000025  00000+0  19946-4 0  9996
2 62795  88.9674  94.4553 0016088 102.5722 257.7230 13.51008730 58451
QIANFAN-66              
1 62796U 25016M   26064.78493237  .00000034  00000+0  33051-4 0  9997
2 62796  88.9694  94.4387 0017203  98.7621 261.5479 13.50996881 58509
QIANFAN-67              
1 62797U 25016N   26064.71492934  .00000039  00000+0  40761-4 0  9995
2 62797  88.9684  94.4634 0017147 104.9602 255.3449 13.50995272 58466
QIANFAN-68              
1 62798U 25016P   26064.70683984  .00000038  00000+0  40222-4 0  9993
2 62798  88.9688  94.5125 0017212 103.4572 256.8499 13.51005222 58447
